{
  "type": "FeatureCollection",
  "features": [
    {
      "type": "Feature",
      "geometry": {
        "type": "Polygon",
        "coordinates": [
          [
            [
              369.0,
              91.02618469396394
            ],
            [
              368.5874981773924,
              90.89954815059119
            ],
            [
              367.76249453217713,
              90.6462750638457
            ],
            [
              366.52498906435426,
              90.26636543372746
            ],
            [
              364.8749817739239,
              89.75981926023648
            ],
            [
              363.3388089505954,
              88.81740963011825
            ],
            [
              361.9164705943688,
              87.43913654337274
            ],
            [
              360.6079667052443,
              85.625
            ],
            [
              359.4132972832217,
              83.375
            ],
            [
              358.853464394818,
              80.96881744439314
            ],
            [
              358.9284680400333,
              78.4064523331794
            ],
            [
              359.6383082188674,
              75.6879046663588
            ],
            [
              360.9829849313204,
              72.81317444393136
            ],
            [
              363.6789924656602,
              70.98333655241795
            ],
            [
              367.72633082188673,
              70.1983909918186
            ],
            [
              373.125,
              70.45833776213327
            ],
            [
              379.875,
              71.763176863362
            ],
            [
              384.875,
              73.39544812690329
            ],
            [
              388.125,
              75.35515155275712
            ],
            [
              389.625,
              77.6422871409235
            ],
            [
              389.375,
              80.25685489140244
            ],
            [
              387.94419686800046,
              82.64411154694159
            ],
            [
              385.3325906040014,
              84.80405710754096
            ],
            [
              381.54018120800276,
              86.73669157320053
            ],
            [
              376.56696868000466,
              88.44201494392033
            ],
            [
              372.8303624160056,
              89.72264401533292
            ],
            [
              370.3303624160056,
              90.5785787874383
            ],
            [
              369.06696868000466,
              91.00981926023648
            ],
            [
              369.04018120800276,
              91.01636543372746
            ],
            [
              369.0200906040014,
              91.0212750638457
            ],
            [
              369.00669686800046,
              91.02454815059119
            ],
            [
              369.0,
              91.02618469396394
            ]
          ]
        ]
      },
      "properties": {
        "id": 0,
        "area_pixels": 471.3219616409624
      }
    },
    {
      "type": "Feature",
      "geometry": {
        "type": "Polygon",
        "coordinates": [
          [
            [
              362.0,
              93.15696341337338
            ],
            [
              361.1420493028298,
              92.77215320003754
            ],
            [
              359.42614790848927,
              92.00253277336587
            ],
            [
              356.85229581697854,
              90.84810213335837
            ],
            [
              353.4204930282977,
              89.30886128001501
            ],
            [
              350.680922455844,
              87.6544306400075
            ],
            [
              348.63358409961734,
              85.88481021333584
            ],
            [
              347.27847795961804,
              84.0
            ],
            [
              346.615604035846,
              82.0
            ],
            [
              346.39211777113013,
              79.9798455410957
            ],
            [
              346.60801916547064,
              77.9395366232871
            ],
            [
              347.2633082188674,
              75.8790732465742
            ],
            [
              348.3579849313204,
              73.79845541095696
            ],
            [
              350.1164924656602,
              71.92138813324956
            ],
            [
              352.53883082188673,
              70.247871413452
            ],
            [
              355.625,
              68.77790525156422
            ],
            [
              359.375,
              67.51148964758627
            ],
            [
              363.25,
              66.98197344755143
            ],
            [
              367.25,
              67.1893566514597
            ],
            [
              371.375,
              68.1336392593111
            ],
            [
              375.625,
              69.81482127110561
            ],
            [
              378.8652380797674,
              71.92967063690165
            ],
            [
              381.09571423930214,
              74.47818735669924
            ],
            [
              382.3164284786043,
              77.46037143049836
            ],
            [
              382.52738079767386,
              80.876222858299
            ],
            [
              381.41273280983233,
              83.8756114291495
            ],
            [
              378.9724845150797,
              86.45853714304984
            ],
            [
              375.20663591341594,
              88.625
            ],
            [
              370.1151870048411,
              90.375
            ],
            [
              366.2667244707863,
              91.69731021333584
            ],
            [
              363.66124831125154,
              92.5919306400075
            ],
            [
              362.2987585262368,
              93.05886128001501
            ],
            [
              362.1792551157421,
              93.09810213335837
            ],
            [
              362.08962755787104,
              93.12753277336587
            ],
            [
              362.02987585262366,
              93.14715320003754
            ],
            [
              362.0,
              93.15696341337338
            ]
          ]
        ]
      },
      "properties": {
        "id": 1,
        "area_pixels": 697.4450320869219
      }
    },
    {
      "type": "Feature",
      "geometry": {
        "type": "Polygon",
        "coordinates": [
          [
            [
              133.0,
              168.2208405357699
            ],
            [
              132.375,
              167.9408087936068
            ],
            [
              131.125,
              167.38074530928057
            ],
            [
              129.25,
              166.54065008279127
            ],
            [
              126.75,
              165.42052311413883
            ],
            [
              123.75,
              164.8023254209753
            ],
            [
              120.25,
              164.68605700330068
            ],
            [
              116.25,
              165.0717178611149
            ],
            [
              111.75,
              165.959307994418
            ],
            [
              107.875,
              166.43039242033214
            ],
            [
              104.625,
              166.4849711388573
            ],
            [
              102.0,
              166.12304414999352
            ],
            [
              100.0,
              165.34461145374075
            ],
            [
              98.10133082188673,
              164.12472678096609
            ],
            [
              96.30399246566022,
              162.46339013166948
            ],
            [
              94.60798493132043,
              160.360601505851
            ],
            [
              93.01330821886737,
              157.8163609035106
            ],
            [
              92.017408877734,
              155.3456804517553
            ],
            [
              91.6202869079203,
              152.9485601505851
            ],
            [
              91.82194230942632,
              150.625
            ],
            [
              92.62237508225202,
              148.375
            ],
            [
              93.98376064677814,
              146.24961521474523
            ],
            [
              95.90609900300466,
              144.2488456442357
            ],
            [
              98.3893901509316,
              142.3726912884714
            ],
            [
              101.43363409055895,
              140.62115214745228
            ],
            [
              104.90431704527947,
              139.64518762766465
            ],
            [
              108.80143901509317,
              139.44479772910847
            ],
            [
              113.125,
              140.01998245178373
            ],
            [
              117.875,
              141.37074179569038
            ],
            [
              122.5,
              142.28811428776433
            ],
            [
              127.0,
              142.77209992800556
            ],
            [
              131.375,
              142.82269871641404
            ],
            [
              135.625,
              142.43991065298974
            ],
            [
              139.19415033883854,
              142.9737115705557
            ],
            [
              142.08245101651565,
              144.42410146911192
            ],
            [
              144.2899020330313,
              146.79108034865834
            ],
            [
              145.81650338838546,
              150.074648209195
            ],
            [
              146.07823331467583,
              153.3498241045975
            ],
            [
              145.07509181190238,
              156.61660803486583
            ],
            [
              142.80707888006515,
              159.875
            ],
            [
              139.27419451916413,
              163.125
            ],
            [
              136.56360199987506,
              165.5763025334856
            ],
            [
              134.67530132219798,
              167.22890760045686
            ],
            [
              133.60929248613286,
              168.0828152009137
            ],
            [
              133.3655754916797,
              168.1380253348562
            ],
            [
              133.18278774583985,
              168.17943293531303
            ],
            [
              133.0609292486133,
              168.2070380022843
            ],
            [
              133.0,
              168.2208405357699
            ]
          ]
        ]
      },
      "properties": {
        "id": 2,
        "area_pixels": 1188.9213601474185
      }
    },
    {
      "type": "Feature",
      "geometry": {
        "type": "Polygon",
        "coordinates": [
          [
            [
              138.0,
              169.20818369796038
            ],
            [
              137.1875,
              168.8493748841687
            ],
            [
              135.5625,
              168.1317572565854
            ],
            [
              133.125,
              167.05533081521043
            ],
            [
              129.875,
              165.6200955600438
            ],
            [
              127.16383082188673,
              163.88946645133797
            ],
            [
              124.99149246566022,
              161.8634434890929
            ],
            [
              123.35798493132043,
              159.54202667330864
            ],
            [
              122.26330821886737,
              156.92521600398518
            ],
            [
              121.77846986264083,
              154.40127703081976
            ],
            [
              121.90346986264083,
              151.97020975381236
            ],
            [
              122.63830821886737,
              149.632014172963
            ],
            [
              123.98298493132043,
              147.38669028827167
            ],
            [
              125.92899246566022,
              145.49187058035045
            ],
            [
              128.47633082188673,
              143.9475550491993
            ],
            [
              131.625,
              142.75374369481824
            ],
            [
              135.375,
              141.9104365172073
            ],
            [
              138.6875,
              141.5124023247824
            ],
            [
              141.5625,
              141.55964111754363
            ],
            [
              144.0,
              142.05215289549093
            ],
            [
              146.0,
              142.9899376586243
            ],
            [
              147.7796532193966,
              144.29348780576657
            ],
            [
              149.33895965818988,
              145.96280333691772
            ],
            [
              150.67791931637973,
              147.99788425207774
            ],
            [
              151.79653219396621,
              150.39873055124664
            ],
            [
              152.35583863275946,
              152.79957748448925
            ],
            [
              152.35583863275946,
              155.2004250518055
            ],
            [
              151.79653219396621,
              157.60127325319547
            ],
            [
              150.67791931637973,
              160.00212208865906
            ],
            [
              149.2108511328214,
              162.1400465063909
            ],
            [
              147.39532764329124,
              164.0150465063909
            ],
            [
              145.23134884778923,
              165.62712208865906
            ],
            [
              142.71891474631542,
              166.97627325319547
            ],
            [
              140.7751976955785,
              168.00114810772027
            ],
            [
              139.4001976955785,
              168.70174665223348
            ],
            [
              138.59391474631542,
              169.07806888673514
            ],
            [
              138.35634884778923,
              169.13011481122524
            ],
            [
              138.17817442389463,
              169.1691492545928
            ],
            [
              138.05939147463152,
              169.19517221683785
            ],
            [
              138.0,
              169.20818369796038
            ]
          ]
        ]
      },
      "properties": {
        "id": 3,
        "area_pixels": 631.7400583349518
      }
    },
    {
      "type": "Feature",
      "geometry": {
        "type": "Polygon",
        "coordinates": [
          [
            [
              174.0,
              171.00108250771473
            ],
            [
              173.0625,
              170.7201391578624
            ],
            [
              171.1875,
              170.1582524581578
            ],
            [
              168.375,
              169.31542240860085
            ],
            [
              164.625,
              168.1916490091916
            ],
            [
              161.47633082188673,
              166.7546946527548
            ],
            [
              158.9289924656602,
              165.00455933929047
            ],
            [
              156.9829849313204,
              162.94124306879857
            ],
            [
              155.63830821886737,
              160.56474584127915
            ],
            [
              154.90346986264083,
              158.11966071177366
            ],
            [
              154.77846986264083,
              155.6059876802821
            ],
            [
              155.26330821886737,
              153.02372674680453
            ],
            [
              156.3579849313204,
              150.37287791134094
            ],
            [
              157.8664924656602,
              148.03203078281533
            ],
            [
              159.78883082188673,
              146.00118536122773
            ],
            [
              162.125,
              144.2803416465782
            ],
            [
              164.875,
              142.86949963886667
            ],
            [
              167.8125,
              142.107666536997
            ],
            [
              170.9375,
              141.99484234096906
            ],
            [
              174.25,
              142.531027050783
            ],
            [
              177.75,
              143.7162206664387
            ],
            [
              180.71116917811327,
              145.19924018506035
            ],
            [
              183.1335075343398,
              146.98008560664792
            ],
            [
              185.0170150686796,
              149.05875693120143
            ],
            [
              186.36169178113263,
              151.43525415872085
            ],
            [
              187.09653013735917,
              153.88033928822634
            ],
            [
              187.22153013735917,
              156.3940123197179
            ],
            [
              186.73669178113263,
              158.97627325319547
            ],
            [
              185.6420150686796,
              161.62712208865906
            ],
            [
              184.19620052102147,
              163.9525465063909
            ],
            [
              182.39924813815833,
              165.9525465063909
            ],
            [
              180.25115792009012,
              167.62712208865906
            ],
            [
              177.7519298668168,
              168.97627325319547
            ],
            [
              175.8773158401802,
              169.9882042833299
            ],
            [
              174.6273158401802,
              170.66291517906242
            ],
            [
              174.0019298668168,
              171.00040594039302
            ],
            [
              174.00115792009012,
              171.0006765673217
            ],
            [
              174.00057896004506,
              171.00087953751822
            ],
            [
              174.00019298668167,
              171.00101485098256
            ],
            [
              174.0,
              171.00108250771473
            ]
          ]
        ]
      },
      "properties": {
        "id": 4,
        "area_pixels": 702.365036643343
      }
    },
    {
      "type": "Feature",
      "geometry": {
        "type": "Polygon",
        "coordinates": [
          [
            [
              167.0,
              172.00155615432996
            ],
            [
              166.04499548073625,
              171.75145889468433
            ],
            [
              164.1349864422088,
              171.2512643753931
            ],
            [
              161.26997288441754,
              170.50097259645625
            ],
            [
              157.4499548073626,
              169.5005835578737
            ],
            [
              154.20377659072182,
              168.12529177893686
            ],
            [
              151.5314382344953,
              166.37509725964563
            ],
            [
              149.432939738683,
              164.25
            ],
            [
              147.9082811032849,
              161.75
            ],
            [
              147.0384563048496,
              159.2122877911341
            ],
            [
              146.8234653433771,
              156.63686337340226
            ],
            [
              147.26330821886737,
              154.02372674680453
            ],
            [
              148.3579849313204,
              151.37287791134094
            ],
            [
              149.8664924656602,
              149.0318874772663
            ],
            [
              151.78883082188673,
              147.0007554445807
            ],
            [
              154.125,
              145.27948181328415
            ],
            [
              156.875,
              143.86806658337665
            ],
            [
              159.875,
              143.10594687040893
            ],
            [
              163.125,
              142.993122674381
            ],
            [
              166.625,
              143.52959399529294
            ],
            [
              170.375,
              144.71536083314467
            ],
            [
              173.52366917811327,
              146.19881026841335
            ],
            [
              176.0710075343398,
              147.9799423010989
            ],
            [
              178.0170150686796,
              150.05875693120143
            ],
            [
              179.36169178113263,
              152.43525415872085
            ],
            [
              180.09653013735917,
              154.88033928822634
            ],
            [
              180.22153013735917,
              157.3940123197179
            ],
            [
              179.73669178113263,
              159.97627325319547
            ],
            [
              178.6420150686796,
              162.62712208865906
            ],
            [
              177.19628465991042,
              164.9525465063909
            ],
            [
              175.3995005548251,
              166.9525465063909
            ],
            [
              173.25166275342366,
              168.62712208865906
            ],
            [
              170.7527712557061,
              169.97627325319547
            ],
            [
              168.87832550684732,
              170.98823388624336
            ],
            [
              167.62832550684732,
              171.66300398780277
            ],
            [
              167.0027712557061,
              172.0005835578737
            ],
            [
              167.00166275342366,
              172.00097259645625
            ],
            [
              167.00083137671183,
              172.0012643753931
            ],
            [
              167.00027712557062,
              172.00145889468433
            ],
            [
              167.0,
              172.00155615432996
            ]
          ]
        ]
      },
      "properties": {
        "id": 5,
        "area_pixels": 726.9073035453912
      }
    },
    {
      "type": "Feature",
      "geometry": {
        "type": "Polygon",
        "coordinates": [
          [
            [
              159.0,
              173.00155615432996
            ],
            [
              158.04499548073625,
              172.75145889468433
            ],
            [
              156.1349864422088,
              172.2512643753931
            ],
            [
              153.26997288441754,
              171.50097259645625
            ],
            [
              149.4499548073626,
              170.5005835578737
            ],
            [
              146.20377659072182,
              169.12529177893686
            ],
            [
              143.5314382344953,
              167.37509725964563
            ],
            [
              141.432939738683,
              165.25
            ],
            [
              139.9082811032849,
              162.75
            ],
            [
              139.0384563048496,
              160.2122877911341
            ],
            [
              138.8234653433771,
              157.63686337340226
            ],
            [
              139.26330821886737,
              155.02372674680453
            ],
            [
              140.3579849313204,
              152.37287791134094
            ],
            [
              141.8664924656602,
              150.0318874772663
            ],
            [
              143.78883082188673,
              148.0007554445807
            ],
            [
              146.125,
              146.27948181328415
            ],
            [
              148.875,
              144.86806658337665
            ],
            [
              151.875,
              144.10594687040893
            ],
            [
              155.125,
              143.993122674381
            ],
            [
              158.625,
              144.52959399529294
            ],
            [
              162.375,
              145.71536083314467
            ],
            [
              165.52366917811327,
              147.19881026841335
            ],
            [
              168.0710075343398,
              148.9799423010989
            ],
            [
              170.0170150686796,
              151.05875693120143
            ],
            [
              171.36169178113263,
              153.43525415872085
            ],
            [
              172.09653013735917,
              155.88033928822634
            ],
            [
              172.22153013735917,
              158.3940123197179
            ],
            [
              171.73669178113263,
              160.97627325319547
            ],
            [
              170.6420150686796,
              163.62712208865906
            ],
            [
              169.19628465991042,
              165.9525465063909
            ],
            [
              167.3995005548251,
              167.9525465063909
            ],
            [
              165.25166275342366,
              169.62712208865906
            ],
            [
              162.7527712557061,
              170.97627325319547
            ],
            [
              160.87832550684732,
              171.98823388624336
            ],
            [
              159.62832550684732,
              172.66300398780277
            ],
            [
              159.0027712557061,
              173.0005835578737
            ],
            [
              159.00166275342366,
              173.00097259645625
            ],
            [
              159.00083137671183,
              173.0012643753931
            ],
            [
              159.00027712557062,
              173.00145889468433
            ],
            [
              159.0,
              173.00155615432996
            ]
          ]
        ]
      },
      "properties": {
        "id": 6,
        "area_pixels": 726.9073035455076
      }
    },
    {
      "type": "Feature",
      "geometry": {
        "type": "Polygon",
        "coordinates": [
          [
            [
              206.0,
              174.0016287857279
            ],
            [
              204.9375,
              173.76258797152673
            ],
            [
              202.8125,
              173.28450634312443
            ],
            [
              199.625,
              172.56738390052095
            ],
            [
              195.375,
              171.61122064371634
            ],
            [
              191.80584966116146,
              170.32053721620605
            ],
            [
              188.91754898348435,
              168.69533361799006
            ],
            [
              186.7100979669687,
              166.7356098490684
            ],
            [
              185.18349661161454,
              164.44136590944106
            ],
            [
              184.2635716270576,
              162.03318295472053
            ],
            [
              183.95032301329792,
              159.51106098490683
            ],
            [
              184.24375077033542,
              156.875
            ],
            [
              185.14385489817013,
              154.125
            ],
            [
              186.47555730092606,
              151.687398200892
            ],
            [
              188.23885797860316,
              149.56219460267602
            ],
            [
              190.43375693120143,
              147.74938920535203
            ],
            [
              193.06025415872085,
              146.24898200892008
            ],
            [
              196.09262707936043,
              145.36271742579726
            ],
            [
              199.53087569312015,
              145.09059545598356
            ],
            [
              203.375,
              145.43261609947905
            ],
            [
              207.625,
              146.38877935628364
            ],
            [
              211.19415033883854,
              147.67946278379395
            ],
            [
              214.08245101651565,
              149.30466638200994
            ],
            [
              216.2899020330313,
              151.2643901509316
            ],
            [
              217.81650338838546,
              153.55863409055894
            ],
            [
              218.7364283729424,
              155.96681704527947
            ],
            [
              219.04967698670208,
              158.48893901509317
            ],
            [
              218.75624922966458,
              161.125
            ],
            [
              217.85614510182987,
              163.875
            ],
            [
              216.5247327015537,
              166.3125
            ],
            [
              214.76201202883607,
              168.4375
            ],
            [
              212.56798308367703,
              170.25
            ],
            [
              209.94264586607656,
              171.75
            ],
            [
              207.97335295039647,
              172.875101799108
            ],
            [
              206.66010433663675,
              173.62530539732398
            ],
            [
              206.0029000247974,
              174.00061079464797
            ],
            [
              206.00174001487846,
              174.00101799107992
            ],
            [
              206.00087000743923,
              174.0013233884039
            ],
            [
              206.00029000247974,
              174.0015269866199
            ],
            [
              206.0,
              174.0016287857279
            ]
          ]
        ]
      },
      "properties": {
        "id": 7,
        "area_pixels": 771.7826345890062
      }
    }
  ]
}